[{"OBJECT_NAME":"STARLINK-35498","OBJECT_ID":"2025-293Q","EPOCH":"2026-03-09T10:46:11.636256","MEAN_MOTION":14.98325601,"ECCENTRICITY":0.00029353,"INCLINATION":70.0006,"RA_OF_ASC_NODE":94.9889,"ARG_OF_PERICENTER":261.5962,"MEAN_ANOMALY":98.4864,"EPHEMERIS_TYPE":0,"CLASSIFICATION_TYPE":"U","NORAD_CAT_ID":67017,"ELEMENT_SET_NO":999,"REV_AT_EPOCH":1485,"BSTAR":-0.0010476463,"MEAN_MOTION_DOT":-0.00012569,"MEAN_MOTION_DDOT":0},{"OBJECT_NAME":"FENGYUN 1C DEB","OBJECT_ID":"1999-025CUF","EPOCH":"2026-03-09T01:34:38.628768","MEAN_MOTION":15.17132493,"ECCENTRICITY":0.01273829,"INCLINATION":98.8955,"RA_OF_ASC_NODE":293.2327,"ARG_OF_PERICENTER":89.1897,"MEAN_ANOMALY":272.3925,"EPHEMERIS_TYPE":0,"CLASSIFICATION_TYPE":"U","NORAD_CAT_ID":32185,"ELEMENT_SET_NO":999,"REV_AT_EPOCH":96318,"BSTAR":0.0036969643,"MEAN_MOTION_DOT":0.00091378,"MEAN_MOTION_DDOT":0}]
